{
    "links": {
        "self": "http://www.neowsapp.com/rest/v1/neo/3755313?api_key=iIulBulltgU6a56xZRHN4H3l9WmuAYTsLGpBGhQ2"
    },
    "id": "3755313",
    "neo_reference_id": "3755313",
    "name": "(2016 NV32)",
    "designation": "2016 NV32",
    "nasa_jpl_url": "http://ssd.jpl.nasa.gov/sbdb.cgi?sstr=3755313",
    "absolute_magnitude_h": 24.2,
    "estimated_diameter": {
        "kilometers": {
            "estimated_diameter_min": 0.0384197891,
            "estimated_diameter_max": 0.0859092601
        },
        "meters": {
            "estimated_diameter_min": 38.4197891064,
            "estimated_diameter_max": 85.9092601232
        },
        "miles": {
            "estimated_diameter_min": 0.0238729428,
            "estimated_diameter_max": 0.0533815229
        },
        "feet": {
            "estimated_diameter_min": 126.0491808919,
            "estimated_diameter_max": 281.8545369825
        }
    },
    "is_potentially_hazardous_asteroid": false,
    "close_approach_data": [
        {
            "close_approach_date": "2016-07-12",
            "close_approach_date_full": "2016-Jul-12 03:31",
            "epoch_date_close_approach": 1468294260000,
            "relative_velocity": {
                "kilometers_per_second": "11.2837887576",
                "kilometers_per_hour": "40621.6395273888",
                "miles_per_hour": "25240.7070718933"
            },
            "miss_distance": {
                "astronomical": "0.0977952635",
                "lunar": "38.0423575015",
                "kilometers": "14629963.115688745",
                "miles": "9090637.541624881"
            },
            "orbiting_body": "Earth"
        }
    ],
    "orbital_data": {
        "orbit_id": "2",
        "orbit_determination_date": "2017-04-06 08:25:00",
        "first_observation_date": "2016-07-11",
        "last_observation_date": "2016-07-13",
        "data_arc_in_days": 2,
        "observations_used": 8,
        "orbit_uncertainty": "9",
        "minimum_orbit_intersection": ".0567306",
        "jupiter_tisserand_invariant": "5.183",
        "epoch_osculation": "2457581.5",
        "eccentricity": ".1154097459369837",
        "semi_major_axis": "1.213147911987747",
        "inclination": "21.29240605384808",
        "ascending_node_longitude": "111.7217833329177",
        "orbital_period": "488.0553293827205",
        "perihelion_distance": "1.073138819681259",
        "perihelion_argument": "182.384659241254",
        "aphelion_distance": "1.353157004294235",
        "perihelion_time": "2457581.281125574711",
        "mean_anomaly": ".1614464351894232",
        "mean_motion": ".7376212866178892",
        "equinox": "J2000",
        "orbit_class": {
            "orbit_class_type": "AMO",
            "orbit_class_description": "Near-Earth asteroid orbits similar to that of 1221 Amor",
            "orbit_class_range": "1.017 AU < q (perihelion) < 1.3 AU"
        }
    },
    "is_sentry_object": false
}